{"type":"FeatureCollection","features":[{"type":"Feature","properties":{"candidate_group":0,"crashes":2,"deaths":0,"serious_injuries":2,"first_year":2024,"last_year":2026,"roads":"AUSTIN HWY","from_streets":"TBD, WALZEM RD","to_streets":"NE LOOP 410 ACCESS RD, TBD","max_match_distance_ft":8.576473569993944,"span_miles":1.0085179623351987,"display_order":4,"kind":"corridor"},"geometry":{"type":"MultiLineString","coordinates":[[[-98.42501917815886,29.497919568481535],[-98.4242470144314,29.498404408017475],[-98.42333680637276,29.49897734189034],[-98.42266009003804,29.499397954027888]],[[-98.40771487660555,29.510319672561568],[-98.40559218556487,29.511875809151856],[-98.40507104859235,29.51227914710786],[-98.40476061913257,29.512539034702762]]]}},{"type":"Feature","properties":{"candidate_group":1,"crashes":2,"deaths":0,"serious_injuries":2,"first_year":2024,"last_year":2024,"roads":"E HOUSTON ST","from_streets":"N ST MARYS, SOLEDAD ST","to_streets":"BRIDGE, NAVARRO ST","max_match_distance_ft":4.594116121922741,"span_miles":0.20577034722510054,"display_order":5,"kind":"corridor"},"geometry":{"type":"MultiLineString","coordinates":[[[-98.49318333640632,29.426421363946435],[-98.4930466578174,29.426425658259614],[-98.49239621522122,29.42645412852901]],[[-98.49133354285156,29.426462462530676],[-98.48972580263052,29.426472144996254]]]}},{"type":"Feature","properties":{"candidate_group":2,"crashes":2,"deaths":1,"serious_injuries":1,"first_year":2024,"last_year":2025,"roads":"EVERS RD","from_streets":"NW LOOP 410, WURZBACH RD","to_streets":"JOINER DR, NW LOOP 410 ACCESS RD","max_match_distance_ft":3.047875940909388,"span_miles":0.18653550413002834,"display_order":2,"kind":"corridor"},"geometry":{"type":"MultiLineString","coordinates":[[[-98.59339078727875,29.485376619494016],[-98.5939118381678,29.4857625445778]],[[-98.59569497236023,29.48713961362599],[-98.59692425910627,29.488082520147564],[-98.59751111871306,29.488527071009575]]]}},{"type":"Feature","properties":{"candidate_group":3,"crashes":3,"deaths":2,"serious_injuries":1,"first_year":2024,"last_year":2025,"roads":"HISTORIC OLD HWY 90","from_streets":"MONTEREY ST, S SAN JOAQUIN, W CESAR CHAVEZ BLVD","to_streets":"MONTEREY ST, SW 36TH ST","max_match_distance_ft":1.6669485050726547,"span_miles":0.542098735983591,"display_order":1,"kind":"corridor"},"geometry":{"type":"MultiLineString","coordinates":[[[-98.5657303299362,29.429947612285613],[-98.5660222937553,29.429811737125956]],[[-98.5630292682844,29.431001178322738],[-98.56314509015714,29.430971896498786],[-98.56347459090837,29.43087602797196],[-98.5636248236789,29.430824951977154],[-98.56381515894961,29.430763005835654],[-98.56406926229266,29.430666201193063],[-98.56425963796762,29.430594628748196],[-98.5645216383906,29.430487536544994],[-98.5657303299362,29.429947612285613]],[[-98.56941326748316,29.42823513595849],[-98.5698263715073,29.42805220140532],[-98.57052906692964,29.427734059575705],[-98.57199818503395,29.427068404026794],[-98.57241602358452,29.42687791349288]]]}},{"type":"Feature","properties":{"candidate_group":4,"crashes":2,"deaths":0,"serious_injuries":2,"first_year":2024,"last_year":2026,"roads":"IH 35 N ACCESS RD","from_streets":"TBD","to_streets":"TBD","max_match_distance_ft":33.529866115914984,"span_miles":0.28410277626978564,"display_order":6,"kind":"corridor"},"geometry":{"type":"MultiLineString","coordinates":[[[-98.4280907662558,29.447138802590544],[-98.42638319317602,29.448082378358624],[-98.42536048108298,29.448627344224636],[-98.42462733992642,29.448944592481492],[-98.42333659115515,29.449514515631424]],[[-98.42690692444796,29.448545290808813],[-98.42972774671851,29.447016538137984],[-98.43095216061187,29.446356199694765]]]}},{"type":"Feature","properties":{"candidate_group":5,"crashes":2,"deaths":0,"serious_injuries":2,"first_year":2024,"last_year":2026,"roads":"NOGALITOS ST","from_streets":"PRADO ST, PRUITT","to_streets":"CONCEPTION CT, DRAKE AVE","max_match_distance_ft":4.620701913249613,"span_miles":0.6922464664256426,"display_order":7,"kind":"corridor"},"geometry":{"type":"MultiLineString","coordinates":[[[-98.51276599450853,29.39923513795187],[-98.51311730586443,29.398834194325]],[[-98.5213738001885,29.38934746565028],[-98.52192628802945,29.388723073708178]]]}},{"type":"Feature","properties":{"candidate_group":6,"crashes":2,"deaths":0,"serious_injuries":2,"first_year":2024,"last_year":2025,"roads":"ROOSEVELT AVE","from_streets":"HERBST, TBD","to_streets":"SE LOOP 410 ACCESS RD, TBD","max_match_distance_ft":9.095131038151836,"span_miles":0.83585735362898,"display_order":8,"kind":"corridor"},"geometry":{"type":"MultiLineString","coordinates":[[[-98.4790396139987,29.32571676800969],[-98.47834834126395,29.323409324465693],[-98.47799758992608,29.32233809003389]],[[-98.4748735360157,29.312807067484172],[-98.47407975413438,29.310331424695576]]]}},{"type":"Feature","properties":{"candidate_group":7,"crashes":2,"deaths":0,"serious_injuries":2,"first_year":2025,"last_year":2026,"roads":"S FLORES ST","from_streets":"E HARDING BLVD, KENDALIA AVE","to_streets":"E BONNER AVE, GENEVIEVE DR","max_match_distance_ft":4.332530497432884,"span_miles":0.6425477157918398,"display_order":9,"kind":"corridor"},"geometry":{"type":"MultiLineString","coordinates":[[[-98.48886539530162,29.35166999691329],[-98.48820663842187,29.350158257903203]],[[-98.49256608649605,29.36048637285546],[-98.49221624527497,29.359651022804073]]]}},{"type":"Feature","properties":{"candidate_group":8,"crashes":2,"deaths":1,"serious_injuries":1,"first_year":2025,"last_year":2025,"roads":"WALZEM RD","from_streets":"TBD","to_streets":"TBD","max_match_distance_ft":1.4187880261573778,"span_miles":1.2457290877955418,"display_order":3,"kind":"corridor"},"geometry":{"type":"MultiLineString","coordinates":[[[-98.35079336898288,29.49903320806766],[-98.35069644227939,29.498949543281114],[-98.35049637950503,29.498769806444894],[-98.35011230304212,29.49835884419579],[-98.34980723248769,29.498007395649555],[-98.34920323086959,29.497328588853986]],[[-98.37009431795661,29.50829201728971],[-98.36928820238501,29.507344205740633]]]}}]}