{"type":"FeatureCollection","features":[{"type":"Feature","properties":{"kind":"crash","crash_id":"19980922","year":2024,"deaths":0,"serious_injuries":1,"victim_ages":"63","victim_genders":"1 - MALE","victim_helmets":"1 - NOT WORN","contributing_factors":"98 - OTHER (EXPLAIN IN NARRATIVE); No Data; No Data","street_name":"ENRIQUE M BARRERA PKWY","intersecting_street":"","candidate_group":3},"geometry":{"type":"Point","coordinates":[-98.57229298,29.42693866]}},{"type":"Feature","properties":{"kind":"crash","crash_id":"20013870","year":2024,"deaths":0,"serious_injuries":1,"victim_ages":"30","victim_genders":"2 - FEMALE","victim_helmets":"2 - WORN, DAMAGED","contributing_factors":"No Data; No Data; No Data","street_name":"RAY ELLISON BLVD","intersecting_street":"FIVE PALMS DR","candidate_group":null},"geometry":{"type":"Point","coordinates":[-98.61564229,29.35621499]}},{"type":"Feature","properties":{"kind":"crash","crash_id":"20033596","year":2024,"deaths":0,"serious_injuries":1,"victim_ages":"28","victim_genders":"1 - MALE","victim_helmets":"1 - NOT WORN","contributing_factors":"20 - DRIVER INATTENTION; No Data; No Data","street_name":"APPLE VALLEY DR","intersecting_street":"RAY ELLISON BLVD","candidate_group":null},"geometry":{"type":"Point","coordinates":[-98.62218643,29.35722192]}},{"type":"Feature","properties":{"kind":"crash","crash_id":"20037935","year":2024,"deaths":1,"serious_injuries":0,"victim_ages":"65","victim_genders":"1 - MALE","victim_helmets":"1 - NOT WORN","contributing_factors":"98 - OTHER (EXPLAIN IN NARRATIVE); No Data; No Data","street_name":"SS0122","intersecting_street":"SL0013","candidate_group":null},"geometry":{"type":"Point","coordinates":[-98.45349578,29.33556181]}},{"type":"Feature","properties":{"kind":"crash","crash_id":"20043829","year":2024,"deaths":0,"serious_injuries":1,"victim_ages":"55","victim_genders":"1 - MALE","victim_helmets":"1 - NOT WORN","contributing_factors":"No Data; No Data; No Data","street_name":"S SAN GABRIEL AVE","intersecting_street":"W CESAR E CHAVEZ BLVD","candidate_group":null},"geometry":{"type":"Point","coordinates":[-98.5608123,29.42703497]}},{"type":"Feature","properties":{"kind":"crash","crash_id":"20045954","year":2024,"deaths":0,"serious_injuries":1,"victim_ages":"74","victim_genders":"1 - MALE","victim_helmets":"2 - WORN, DAMAGED","contributing_factors":"No Data; No Data; No Data","street_name":"CLUBHOUSE BLVD","intersecting_street":"","candidate_group":null},"geometry":{"type":"Point","coordinates":[-98.47608232,29.29682737]}},{"type":"Feature","properties":{"kind":"crash","crash_id":"20046105","year":2024,"deaths":0,"serious_injuries":1,"victim_ages":"43","victim_genders":"1 - MALE","victim_helmets":"1 - NOT WORN","contributing_factors":"No Data; No Data; No Data","street_name":"US0281","intersecting_street":"","candidate_group":null},"geometry":{"type":"Point","coordinates":[-98.48247293,29.56444097]}},{"type":"Feature","properties":{"kind":"crash","crash_id":"20047884","year":2024,"deaths":0,"serious_injuries":1,"victim_ages":"33","victim_genders":"1 - MALE","victim_helmets":"1 - NOT WORN","contributing_factors":"98 - OTHER (EXPLAIN IN NARRATIVE); No Data; No Data","street_name":"SOUTHTON RD","intersecting_street":"","candidate_group":null},"geometry":{"type":"Point","coordinates":[-98.3991035,29.28304454]}},{"type":"Feature","properties":{"kind":"crash","crash_id":"20073977","year":2024,"deaths":0,"serious_injuries":1,"victim_ages":"26","victim_genders":"1 - MALE","victim_helmets":"99 - UNKNOWN IF WORN","contributing_factors":"20 - DRIVER INATTENTION; No Data; No Data","street_name":"MCCULLOUGH AVE","intersecting_street":"N ST MARYS ST","candidate_group":null},"geometry":{"type":"Point","coordinates":[-98.48730098,29.43353641]}},{"type":"Feature","properties":{"kind":"crash","crash_id":"20121055","year":2024,"deaths":0,"serious_injuries":1,"victim_ages":"57","victim_genders":"1 - MALE","victim_helmets":"1 - NOT WORN","contributing_factors":"16 - DISREGARD STOP SIGN OR LIGHT; 20 - DRIVER INATTENTION; No Data","street_name":"LORENE LN","intersecting_street":"MCCARTY RD","candidate_group":null},"geometry":{"type":"Point","coordinates":[-98.50050231,29.52886495]}},{"type":"Feature","properties":{"kind":"crash","crash_id":"20123688","year":2024,"deaths":0,"serious_injuries":1,"victim_ages":"41","victim_genders":"1 - MALE","victim_helmets":"1 - NOT WORN","contributing_factors":"98 - OTHER (EXPLAIN IN NARRATIVE); 21 - DROVE WITHOUT HEADLIGHTS; No Data","street_name":"US0090","intersecting_street":"","candidate_group":null},"geometry":{"type":"Point","coordinates":[-98.65807517,29.394747]}},{"type":"Feature","properties":{"kind":"crash","crash_id":"20154176","year":2024,"deaths":0,"serious_injuries":1,"victim_ages":"","victim_genders":"1 - MALE","victim_helmets":"1 - NOT WORN","contributing_factors":"98 - OTHER (EXPLAIN IN NARRATIVE); No Data; No Data","street_name":"IH0410","intersecting_street":"","candidate_group":null},"geometry":{"type":"Point","coordinates":[-98.50504964,29.52050745]}},{"type":"Feature","properties":{"kind":"crash","crash_id":"20198215","year":2024,"deaths":0,"serious_injuries":1,"victim_ages":"40","victim_genders":"1 - MALE","victim_helmets":"1 - NOT WORN","contributing_factors":"35 - FAILED TO YIELD RIGHT OF WAY - STOP SIGN; No Data; No Data","street_name":"IH0035","intersecting_street":"SEGUIN RD","candidate_group":4},"geometry":{"type":"Point","coordinates":[-98.42342232,29.44947264]}},{"type":"Feature","properties":{"kind":"crash","crash_id":"20202028","year":2024,"deaths":0,"serious_injuries":1,"victim_ages":"23","victim_genders":"2 - FEMALE","victim_helmets":"1 - NOT WORN","contributing_factors":"No Data; No Data; No Data","street_name":"SAN PEDRO AVE","intersecting_street":"W KINGS HWY","candidate_group":null},"geometry":{"type":"Point","coordinates":[-98.49932231,29.45993496]}},{"type":"Feature","properties":{"kind":"crash","crash_id":"20258650","year":2024,"deaths":1,"serious_injuries":0,"victim_ages":"46","victim_genders":"1 - MALE","victim_helmets":"99 - UNKNOWN IF WORN","contributing_factors":"34 - FAILED TO YIELD RIGHT OF WAY - PRIVATE DRIVE; No Data; No Data","street_name":"N ZARZAMORA ST","intersecting_street":"ZARZAMORA ST","candidate_group":null},"geometry":{"type":"Point","coordinates":[-98.52437231,29.4495974]}},{"type":"Feature","properties":{"kind":"crash","crash_id":"20270302","year":2024,"deaths":1,"serious_injuries":0,"victim_ages":"49","victim_genders":"1 - MALE","victim_helmets":"1 - NOT WORN","contributing_factors":"33 - FAILED TO YIELD RIGHT OF WAY - OPEN INTERSECTION; No Data; No Data","street_name":"SL0013","intersecting_street":"","candidate_group":null},"geometry":{"type":"Point","coordinates":[-98.42407344,29.35385877]}},{"type":"Feature","properties":{"kind":"crash","crash_id":"20298414","year":2024,"deaths":0,"serious_injuries":1,"victim_ages":"26","victim_genders":"2 - FEMALE","victim_helmets":"1 - NOT WORN","contributing_factors":"69 - WRONG SIDE - APPROACH OR INTERSECTION; No Data; No Data","street_name":"BETTY LEVY","intersecting_street":"W MILITARY DR","candidate_group":null},"geometry":{"type":"Point","coordinates":[-98.62579228,29.43085497]}},{"type":"Feature","properties":{"kind":"crash","crash_id":"20334599","year":2024,"deaths":1,"serious_injuries":0,"victim_ages":"63","victim_genders":"2 - FEMALE","victim_helmets":"99 - UNKNOWN IF WORN","contributing_factors":"98 - OTHER (EXPLAIN IN NARRATIVE); No Data; No Data","street_name":"IH0410","intersecting_street":"SS0122","candidate_group":null},"geometry":{"type":"Point","coordinates":[-98.43291037,29.32321145]}},{"type":"Feature","properties":{"kind":"crash","crash_id":"20340999","year":2024,"deaths":0,"serious_injuries":1,"victim_ages":"39","victim_genders":"1 - MALE","victim_helmets":"99 - UNKNOWN IF WORN","contributing_factors":"98 - OTHER (EXPLAIN IN NARRATIVE); No Data; No Data","street_name":"SL0368","intersecting_street":"","candidate_group":0},"geometry":{"type":"Point","coordinates":[-98.40697059,29.51089606]}},{"type":"Feature","properties":{"kind":"crash","crash_id":"20341297","year":2024,"deaths":0,"serious_injuries":1,"victim_ages":"58","victim_genders":"1 - MALE","victim_helmets":"1 - NOT WORN","contributing_factors":"34 - FAILED TO YIELD RIGHT OF WAY - PRIVATE DRIVE; No Data; No Data","street_name":"SL0013","intersecting_street":"","candidate_group":null},"geometry":{"type":"Point","coordinates":[-98.51759777,29.3566011]}},{"type":"Feature","properties":{"kind":"crash","crash_id":"20364680","year":2024,"deaths":0,"serious_injuries":1,"victim_ages":"36","victim_genders":"1 - MALE","victim_helmets":"1 - NOT WORN","contributing_factors":"15 - DISREGARD STOP AND GO SIGNAL; No Data; No Data","street_name":"FM0471","intersecting_street":"SL1604","candidate_group":null},"geometry":{"type":"Point","coordinates":[-98.70474457,29.49409637]}},{"type":"Feature","properties":{"kind":"crash","crash_id":"20366218","year":2024,"deaths":0,"serious_injuries":1,"victim_ages":"41","victim_genders":"1 - MALE","victim_helmets":"1 - NOT WORN","contributing_factors":"35 - FAILED TO YIELD RIGHT OF WAY - STOP SIGN; No Data; No Data","street_name":"IH0035","intersecting_street":"SL0013","candidate_group":null},"geometry":{"type":"Point","coordinates":[-98.51531817,29.37335801]}},{"type":"Feature","properties":{"kind":"crash","crash_id":"20368088","year":2024,"deaths":0,"serious_injuries":1,"victim_ages":"21","victim_genders":"1 - MALE","victim_helmets":"4 - WORN, UNK DAMAGE","contributing_factors":"44 - FOLLOWED TOO CLOSELY; No Data; No Data","street_name":"NEWELL AVE","intersecting_street":"KARNES ST","candidate_group":null},"geometry":{"type":"Point","coordinates":[-98.4806191,29.44051363]}},{"type":"Feature","properties":{"kind":"crash","crash_id":"20375061","year":2024,"deaths":1,"serious_injuries":0,"victim_ages":"58","victim_genders":"1 - MALE","victim_helmets":"1 - NOT WORN","contributing_factors":"No Data; No Data; No Data","street_name":"W OLD US 90","intersecting_street":"","candidate_group":3},"geometry":{"type":"Point","coordinates":[-98.56331164,29.43092802]}},{"type":"Feature","properties":{"kind":"crash","crash_id":"20382379","year":2024,"deaths":0,"serious_injuries":1,"victim_ages":"50","victim_genders":"1 - MALE","victim_helmets":"1 - NOT WORN","contributing_factors":"98 - OTHER (EXPLAIN IN NARRATIVE); No Data; No Data","street_name":"CROSSWINDS WAY","intersecting_street":"","candidate_group":null},"geometry":{"type":"Point","coordinates":[-98.37478225,29.54736443]}},{"type":"Feature","properties":{"kind":"crash","crash_id":"20389091","year":2024,"deaths":1,"serious_injuries":0,"victim_ages":"47","victim_genders":"1 - MALE","victim_helmets":"1 - NOT WORN","contributing_factors":"98 - OTHER (EXPLAIN IN NARRATIVE); No Data; No Data","street_name":"EVERS RD","intersecting_street":"","candidate_group":2},"geometry":{"type":"Point","coordinates":[-98.59686729,29.48804996]}},{"type":"Feature","properties":{"kind":"crash","crash_id":"20397058","year":2024,"deaths":0,"serious_injuries":1,"victim_ages":"19","victim_genders":"1 - MALE","victim_helmets":"1 - NOT WORN","contributing_factors":"21 - DROVE WITHOUT HEADLIGHTS; No Data; No Data","street_name":"CALLAGHAN RD","intersecting_street":"","candidate_group":null},"geometry":{"type":"Point","coordinates":[-98.56460433,29.49893293]}},{"type":"Feature","properties":{"kind":"crash","crash_id":"20407728","year":2024,"deaths":0,"serious_injuries":1,"victim_ages":"35","victim_genders":"1 - MALE","victim_helmets":"1 - NOT WORN","contributing_factors":"98 - OTHER (EXPLAIN IN NARRATIVE); No Data; No Data","street_name":"SS0536","intersecting_street":"","candidate_group":6},"geometry":{"type":"Point","coordinates":[-98.47818074,29.32298807]}},{"type":"Feature","properties":{"kind":"crash","crash_id":"20413497","year":2024,"deaths":0,"serious_injuries":1,"victim_ages":"27","victim_genders":"2 - FEMALE","victim_helmets":"1 - NOT WORN","contributing_factors":"98 - OTHER (EXPLAIN IN NARRATIVE); No Data; No Data","street_name":"E SOUTHCROSS BLVD","intersecting_street":"","candidate_group":null},"geometry":{"type":"Point","coordinates":[-98.48150108,29.37302303]}},{"type":"Feature","properties":{"kind":"crash","crash_id":"20439104","year":2024,"deaths":0,"serious_injuries":1,"victim_ages":"50","victim_genders":"1 - MALE","victim_helmets":"1 - NOT WORN","contributing_factors":"No Data; No Data; No Data","street_name":"PLEASANTON RD","intersecting_street":"W AMBER PL","candidate_group":null},"geometry":{"type":"Point","coordinates":[-98.50387231,29.34466499]}},{"type":"Feature","properties":{"kind":"crash","crash_id":"20467405","year":2024,"deaths":0,"serious_injuries":1,"victim_ages":"29","victim_genders":"1 - MALE","victim_helmets":"4 - WORN, UNK DAMAGE","contributing_factors":"No Data; No Data; No Data","street_name":"E HOUSTON ST","intersecting_street":"E HOUSTON ST","candidate_group":1},"geometry":{"type":"Point","coordinates":[-98.48974231,29.42646497]}},{"type":"Feature","properties":{"kind":"crash","crash_id":"20479259","year":2024,"deaths":0,"serious_injuries":1,"victim_ages":"16","victim_genders":"1 - MALE","victim_helmets":"1 - NOT WORN","contributing_factors":"41 - FAULTY EVASIVE ACTION; 69 - WRONG SIDE - APPROACH OR INTERSECTION; No Data","street_name":"SL0353","intersecting_street":"","candidate_group":5},"geometry":{"type":"Point","coordinates":[-98.51311581,29.39884952]}},{"type":"Feature","properties":{"kind":"crash","crash_id":"20492452","year":2024,"deaths":0,"serious_injuries":1,"victim_ages":"31","victim_genders":"1 - MALE","victim_helmets":"1 - NOT WORN","contributing_factors":"20 - DRIVER INATTENTION; 27 - FAILED TO PASS TO RIGHT SAFELY; No Data","street_name":"SOLEDAD ST","intersecting_street":"","candidate_group":1},"geometry":{"type":"Point","coordinates":[-98.49315231,29.42643497]}},{"type":"Feature","properties":{"kind":"crash","crash_id":"20502122","year":2024,"deaths":0,"serious_injuries":1,"victim_ages":"44","victim_genders":"1 - MALE","victim_helmets":"3 - WORN, NOT DAMAGED","contributing_factors":"No Data; No Data; No Data","street_name":"FREDERICKSBURG RD","intersecting_street":"","candidate_group":null},"geometry":{"type":"Point","coordinates":[-98.54125559,29.47977418]}},{"type":"Feature","properties":{"kind":"crash","crash_id":"20504324","year":2024,"deaths":0,"serious_injuries":1,"victim_ages":"30","victim_genders":"1 - MALE","victim_helmets":"1 - NOT WORN","contributing_factors":"No Data; No Data; No Data","street_name":"RIVAS ST","intersecting_street":"","candidate_group":null},"geometry":{"type":"Point","coordinates":[-98.52752969,29.43980291]}},{"type":"Feature","properties":{"kind":"crash","crash_id":"20558764","year":2024,"deaths":0,"serious_injuries":1,"victim_ages":"26","victim_genders":"1 - MALE","victim_helmets":"1 - NOT WORN","contributing_factors":"No Data; No Data; No Data","street_name":"IH0035","intersecting_street":"POTEET JOURDANTON FWY","candidate_group":null},"geometry":{"type":"Point","coordinates":[-98.55330563,29.34276701]}},{"type":"Feature","properties":{"kind":"crash","crash_id":"20559642","year":2024,"deaths":0,"serious_injuries":1,"victim_ages":"20","victim_genders":"1 - MALE","victim_helmets":"1 - NOT WORN","contributing_factors":"22 - FAILED TO CONTROL SPEED; No Data; No Data","street_name":"DEERWOOD DR","intersecting_street":"","candidate_group":null},"geometry":{"type":"Point","coordinates":[-98.43505726,29.49400496]}},{"type":"Feature","properties":{"kind":"crash","crash_id":"20560362","year":2024,"deaths":0,"serious_injuries":1,"victim_ages":"","victim_genders":"1 - MALE","victim_helmets":"1 - NOT WORN","contributing_factors":"No Data; No Data; No Data","street_name":"N PALMETTO ST","intersecting_street":"GULF ST","candidate_group":null},"geometry":{"type":"Point","coordinates":[-98.46563232,29.42584497]}},{"type":"Feature","properties":{"kind":"crash","crash_id":"20580237","year":2024,"deaths":0,"serious_injuries":1,"victim_ages":"39","victim_genders":"1 - MALE","victim_helmets":"1 - NOT WORN","contributing_factors":"35 - FAILED TO YIELD RIGHT OF WAY - STOP SIGN; No Data; No Data","street_name":"JONES MALTSBERGER RD","intersecting_street":"CROSS CANYON DR","candidate_group":null},"geometry":{"type":"Point","coordinates":[-98.46150232,29.55903494]}},{"type":"Feature","properties":{"kind":"crash","crash_id":"20606789","year":2025,"deaths":0,"serious_injuries":1,"victim_ages":"35","victim_genders":"1 - MALE","victim_helmets":"1 - NOT WORN","contributing_factors":"27 - FAILED TO PASS TO RIGHT SAFELY; No Data; No Data","street_name":"US0281","intersecting_street":"","candidate_group":6},"geometry":{"type":"Point","coordinates":[-98.4742475,29.31085991]}},{"type":"Feature","properties":{"kind":"crash","crash_id":"20634686","year":2025,"deaths":1,"serious_injuries":0,"victim_ages":"36","victim_genders":"2 - FEMALE","victim_helmets":"99 - UNKNOWN IF WORN","contributing_factors":"98 - OTHER (EXPLAIN IN NARRATIVE); No Data; No Data","street_name":"W COMMERCE ST","intersecting_street":"","candidate_group":null},"geometry":{"type":"Point","coordinates":[-98.56097534,29.43149343]}},{"type":"Feature","properties":{"kind":"crash","crash_id":"20676091","year":2025,"deaths":0,"serious_injuries":1,"victim_ages":"32","victim_genders":"1 - MALE","victim_helmets":"99 - UNKNOWN IF WORN","contributing_factors":"20 - DRIVER INATTENTION; No Data; No Data","street_name":"FM1976","intersecting_street":"GIBBS SPRAWL RD","candidate_group":8},"geometry":{"type":"Point","coordinates":[-98.34922439,29.49735581]}},{"type":"Feature","properties":{"kind":"crash","crash_id":"20684528","year":2025,"deaths":0,"serious_injuries":1,"victim_ages":"15","victim_genders":"1 - MALE","victim_helmets":"1 - NOT WORN","contributing_factors":"98 - OTHER (EXPLAIN IN NARRATIVE); No Data; No Data","street_name":"EISENHAUER RD","intersecting_street":"","candidate_group":null},"geometry":{"type":"Point","coordinates":[-98.38905701,29.49655495]}},{"type":"Feature","properties":{"kind":"crash","crash_id":"20709191","year":2025,"deaths":1,"serious_injuries":0,"victim_ages":"","victim_genders":"1 - MALE","victim_helmets":"1 - NOT WORN","contributing_factors":"98 - OTHER (EXPLAIN IN NARRATIVE); No Data; No Data","street_name":"W OLD US 90","intersecting_street":"","candidate_group":3},"geometry":{"type":"Point","coordinates":[-98.5658323,29.42989497]}},{"type":"Feature","properties":{"kind":"crash","crash_id":"20712851","year":2025,"deaths":0,"serious_injuries":1,"victim_ages":"46","victim_genders":"1 - MALE","victim_helmets":"99 - UNKNOWN IF WORN","contributing_factors":"98 - OTHER (EXPLAIN IN NARRATIVE); No Data; No Data","street_name":"EVERS RD","intersecting_street":"","candidate_group":2},"geometry":{"type":"Point","coordinates":[-98.59377229,29.48565497]}},{"type":"Feature","properties":{"kind":"crash","crash_id":"20735073","year":2025,"deaths":1,"serious_injuries":0,"victim_ages":"59","victim_genders":"1 - MALE","victim_helmets":"1 - NOT WORN","contributing_factors":"No Data; No Data; No Data","street_name":"OCONNOR RD","intersecting_street":"","candidate_group":null},"geometry":{"type":"Point","coordinates":[-98.38255314,29.55519135]}},{"type":"Feature","properties":{"kind":"crash","crash_id":"20750252","year":2025,"deaths":0,"serious_injuries":1,"victim_ages":"29","victim_genders":"1 - MALE","victim_helmets":"3 - WORN, NOT DAMAGED","contributing_factors":"16 - DISREGARD STOP SIGN OR LIGHT; 22 - FAILED TO CONTROL SPEED; No Data","street_name":"HAYS ST","intersecting_street":"N HACKBERRY","candidate_group":null},"geometry":{"type":"Point","coordinates":[-98.47326232,29.43018497]}},{"type":"Feature","properties":{"kind":"crash","crash_id":"20805389","year":2025,"deaths":0,"serious_injuries":1,"victim_ages":"46","victim_genders":"1 - MALE","victim_helmets":"1 - NOT WORN","contributing_factors":"33 - FAILED TO YIELD RIGHT OF WAY - OPEN INTERSECTION; 22 - FAILED TO CONTROL SPEED; No Data","street_name":"SL0013","intersecting_street":"SS0536","candidate_group":null},"geometry":{"type":"Point","coordinates":[-98.48670972,29.35671904]}},{"type":"Feature","properties":{"kind":"crash","crash_id":"20869086","year":2025,"deaths":0,"serious_injuries":1,"victim_ages":"66","victim_genders":"1 - MALE","victim_helmets":"99 - UNKNOWN IF WORN","contributing_factors":"No Data; No Data; No Data","street_name":"IH0037","intersecting_street":"","candidate_group":null},"geometry":{"type":"Point","coordinates":[-98.47969395,29.43183804]}},{"type":"Feature","properties":{"kind":"crash","crash_id":"20917180","year":2025,"deaths":0,"serious_injuries":1,"victim_ages":"19","victim_genders":"1 - MALE","victim_helmets":"1 - NOT WORN","contributing_factors":"98 - OTHER (EXPLAIN IN NARRATIVE); No Data; No Data","street_name":"S WW WHITE RD","intersecting_street":"","candidate_group":null},"geometry":{"type":"Point","coordinates":[-98.40543973,29.40197626]}},{"type":"Feature","properties":{"kind":"crash","crash_id":"21003710","year":2025,"deaths":0,"serious_injuries":1,"victim_ages":"55","victim_genders":"1 - MALE","victim_helmets":"1 - NOT WORN","contributing_factors":"No Data; No Data; No Data","street_name":"SL0353","intersecting_street":"BRIGGS AVE","candidate_group":null},"geometry":{"type":"Point","coordinates":[-98.56267756,29.35589232]}},{"type":"Feature","properties":{"kind":"crash","crash_id":"21021506","year":2025,"deaths":0,"serious_injuries":1,"victim_ages":"10","victim_genders":"1 - MALE","victim_helmets":"1 - NOT WORN","contributing_factors":"33 - FAILED TO YIELD RIGHT OF WAY - OPEN INTERSECTION; No Data; No Data","street_name":"UHR LN","intersecting_street":"","candidate_group":null},"geometry":{"type":"Point","coordinates":[-98.40636892,29.55554836]}},{"type":"Feature","properties":{"kind":"crash","crash_id":"21060036","year":2025,"deaths":0,"serious_injuries":1,"victim_ages":"26","victim_genders":"1 - MALE","victim_helmets":"1 - NOT WORN","contributing_factors":"35 - FAILED TO YIELD RIGHT OF WAY - STOP SIGN; No Data; No Data","street_name":"E CYPRESS ST","intersecting_street":"OGDEN ST","candidate_group":null},"geometry":{"type":"Point","coordinates":[-98.49298231,29.44064497]}},{"type":"Feature","properties":{"kind":"crash","crash_id":"21104484","year":2025,"deaths":1,"serious_injuries":0,"victim_ages":"48","victim_genders":"2 - FEMALE","victim_helmets":"1 - NOT WORN","contributing_factors":"No Data; No Data; No Data","street_name":"US0087","intersecting_street":"FM1516","candidate_group":null},"geometry":{"type":"Point","coordinates":[-98.36478876,29.39352848]}},{"type":"Feature","properties":{"kind":"crash","crash_id":"21113355","year":2025,"deaths":0,"serious_injuries":1,"victim_ages":"19","victim_genders":"2 - FEMALE","victim_helmets":"1 - NOT WORN","contributing_factors":"69 - WRONG SIDE - APPROACH OR INTERSECTION; No Data; No Data","street_name":"W HAUSMAN RD","intersecting_street":"JV BACON PKWY","candidate_group":null},"geometry":{"type":"Point","coordinates":[-98.61738228,29.57241495]}},{"type":"Feature","properties":{"kind":"crash","crash_id":"21125390","year":2025,"deaths":0,"serious_injuries":1,"victim_ages":"37","victim_genders":"1 - MALE","victim_helmets":"1 - NOT WORN","contributing_factors":"98 - OTHER (EXPLAIN IN NARRATIVE); No Data; No Data","street_name":"IH0410","intersecting_street":"","candidate_group":null},"geometry":{"type":"Point","coordinates":[-98.38914769,29.42347391]}},{"type":"Feature","properties":{"kind":"crash","crash_id":"21180050","year":2025,"deaths":0,"serious_injuries":1,"victim_ages":"43","victim_genders":"1 - MALE","victim_helmets":"1 - NOT WORN","contributing_factors":"No Data; No Data; No Data","street_name":"S FLORES ST","intersecting_street":"","candidate_group":7},"geometry":{"type":"Point","coordinates":[-98.4886296,29.35116227]}},{"type":"Feature","properties":{"kind":"crash","crash_id":"21197540","year":2025,"deaths":1,"serious_injuries":0,"victim_ages":"48","victim_genders":"1 - MALE","victim_helmets":"1 - NOT WORN","contributing_factors":"66 - TURNED WHEN UNSAFE; No Data; No Data","street_name":"FRIO CITY RD","intersecting_street":"FRIO CITY RD","candidate_group":null},"geometry":{"type":"Point","coordinates":[-98.52815231,29.39891498]}},{"type":"Feature","properties":{"kind":"crash","crash_id":"21206071","year":2025,"deaths":1,"serious_injuries":0,"victim_ages":"50","victim_genders":"1 - MALE","victim_helmets":"1 - NOT WORN","contributing_factors":"35 - FAILED TO YIELD RIGHT OF WAY - STOP SIGN; No Data; No Data","street_name":"FM1976","intersecting_street":"IH0035","candidate_group":8},"geometry":{"type":"Point","coordinates":[-98.36986914,29.50802073]}},{"type":"Feature","properties":{"kind":"crash","crash_id":"21261878","year":2026,"deaths":0,"serious_injuries":1,"victim_ages":"39","victim_genders":"1 - MALE","victim_helmets":"1 - NOT WORN","contributing_factors":"No Data; No Data; No Data","street_name":"PA1502","intersecting_street":"","candidate_group":null},"geometry":{"type":"Point","coordinates":[-98.38366251,29.54537973]}},{"type":"Feature","properties":{"kind":"crash","crash_id":"21262641","year":2026,"deaths":0,"serious_injuries":1,"victim_ages":"27","victim_genders":"1 - MALE","victim_helmets":"99 - UNKNOWN IF WORN","contributing_factors":"No Data; No Data; No Data","street_name":"W GERALD AVE","intersecting_street":"PIERIAN AVE","candidate_group":null},"geometry":{"type":"Point","coordinates":[-98.5514723,29.36660498]}},{"type":"Feature","properties":{"kind":"crash","crash_id":"21271110","year":2026,"deaths":1,"serious_injuries":0,"victim_ages":"46","victim_genders":"1 - MALE","victim_helmets":"2 - WORN, DAMAGED","contributing_factors":"No Data; No Data; No Data","street_name":"LAKE BLVD","intersecting_street":"W MISTLETOE AVE","candidate_group":null},"geometry":{"type":"Point","coordinates":[-98.5327723,29.45573497]}},{"type":"Feature","properties":{"kind":"crash","crash_id":"21298533","year":2026,"deaths":0,"serious_injuries":1,"victim_ages":"21","victim_genders":"1 - MALE","victim_helmets":"1 - NOT WORN","contributing_factors":"20 - DRIVER INATTENTION; No Data; No Data","street_name":"IH0035","intersecting_street":"","candidate_group":4},"geometry":{"type":"Point","coordinates":[-98.42813252,29.44777273]}},{"type":"Feature","properties":{"kind":"crash","crash_id":"21352841","year":2026,"deaths":0,"serious_injuries":1,"victim_ages":"55","victim_genders":"1 - MALE","victim_helmets":"99 - UNKNOWN IF WORN","contributing_factors":"No Data; No Data; No Data","street_name":"INGRAM RD","intersecting_street":"CALLAGHAN RD","candidate_group":null},"geometry":{"type":"Point","coordinates":[-98.60250228,29.46633497]}},{"type":"Feature","properties":{"kind":"crash","crash_id":"21369195","year":2025,"deaths":0,"serious_injuries":1,"victim_ages":"24","victim_genders":"1 - MALE","victim_helmets":"99 - UNKNOWN IF WORN","contributing_factors":"No Data; No Data; No Data","street_name":"SS0536","intersecting_street":"","candidate_group":null},"geometry":{"type":"Point","coordinates":[-98.49632716,29.40936597]}},{"type":"Feature","properties":{"kind":"crash","crash_id":"21395671","year":2026,"deaths":0,"serious_injuries":1,"victim_ages":"47","victim_genders":"1 - MALE","victim_helmets":"4 - WORN, UNK DAMAGE","contributing_factors":"No Data; No Data; No Data","street_name":"FURNISH AVE","intersecting_street":"","candidate_group":null},"geometry":{"type":"Point","coordinates":[-98.50959436,29.40583635]}},{"type":"Feature","properties":{"kind":"crash","crash_id":"21411305","year":2026,"deaths":0,"serious_injuries":2,"victim_ages":"23; 24","victim_genders":"2 - FEMALE","victim_helmets":"1 - NOT WORN","contributing_factors":"No Data; No Data; No Data","street_name":"BUENA VISTA ST","intersecting_street":"S ROSILLO ST","candidate_group":null},"geometry":{"type":"Point","coordinates":[-98.52582231,29.42693497]}},{"type":"Feature","properties":{"kind":"crash","crash_id":"21414702","year":2026,"deaths":0,"serious_injuries":1,"victim_ages":"66","victim_genders":"1 - MALE","victim_helmets":"1 - NOT WORN","contributing_factors":"37 - FAILED TO YIELD RIGHT OF WAY - TURNING LEFT; No Data; No Data","street_name":"MARTIN LUTHER KING DR","intersecting_street":"IH0010","candidate_group":null},"geometry":{"type":"Point","coordinates":[-98.43180267,29.41296526]}},{"type":"Feature","properties":{"kind":"crash","crash_id":"21437935","year":2026,"deaths":0,"serious_injuries":1,"victim_ages":"39","victim_genders":"1 - MALE","victim_helmets":"1 - NOT WORN","contributing_factors":"No Data; No Data; No Data","street_name":"ROMERO","intersecting_street":"AKRON AVE","candidate_group":null},"geometry":{"type":"Point","coordinates":[-98.5632623,29.41707498]}},{"type":"Feature","properties":{"kind":"crash","crash_id":"21446395","year":2026,"deaths":0,"serious_injuries":1,"victim_ages":"22","victim_genders":"1 - MALE","victim_helmets":"3 - WORN, NOT DAMAGED","contributing_factors":"No Data; No Data; No Data","street_name":"N ST MARYS ST","intersecting_street":"E RUSSELL PL","candidate_group":null},"geometry":{"type":"Point","coordinates":[-98.48610231,29.45132497]}},{"type":"Feature","properties":{"kind":"crash","crash_id":"21459853","year":2026,"deaths":0,"serious_injuries":1,"victim_ages":"3","victim_genders":"1 - MALE","victim_helmets":"99 - UNKNOWN IF WORN","contributing_factors":"No Data; No Data; No Data","street_name":"AMANDA ST","intersecting_street":"UNKNOWN","candidate_group":null},"geometry":{"type":"Point","coordinates":[-98.43647233,29.39453232]}},{"type":"Feature","properties":{"kind":"crash","crash_id":"21465558","year":2026,"deaths":0,"serious_injuries":1,"victim_ages":"51","victim_genders":"2 - FEMALE","victim_helmets":"1 - NOT WORN","contributing_factors":"16 - DISREGARD STOP SIGN OR LIGHT; No Data; No Data","street_name":"S FLORES ST","intersecting_street":"KENDALIA AVE","candidate_group":7},"geometry":{"type":"Point","coordinates":[-98.49255232,29.36048498]}},{"type":"Feature","properties":{"kind":"crash","crash_id":"21479841","year":2026,"deaths":0,"serious_injuries":1,"victim_ages":"40","victim_genders":"1 - MALE","victim_helmets":"99 - UNKNOWN IF WORN","contributing_factors":"No Data; No Data; No Data","street_name":"E JOSEPHINE ST","intersecting_street":"AUSTIN ST","candidate_group":null},"geometry":{"type":"Point","coordinates":[-98.47394232,29.44402497]}},{"type":"Feature","properties":{"kind":"crash","crash_id":"21509355","year":2026,"deaths":0,"serious_injuries":1,"victim_ages":"66","victim_genders":"1 - MALE","victim_helmets":"1 - NOT WORN","contributing_factors":"69 - WRONG SIDE - APPROACH OR INTERSECTION; 98 - OTHER (EXPLAIN IN NARRATIVE); No Data","street_name":"SL0353","intersecting_street":"LINARES AVE","candidate_group":5},"geometry":{"type":"Point","coordinates":[-98.52187189,29.38880528]}},{"type":"Feature","properties":{"kind":"crash","crash_id":"21514753","year":2026,"deaths":0,"serious_injuries":1,"victim_ages":"36","victim_genders":"2 - FEMALE","victim_helmets":"1 - NOT WORN","contributing_factors":"39 - FAILED TO YIELD RIGHT OF WAY - YIELD SIGN; No Data; No Data","street_name":"MONTEZUMA ST","intersecting_street":"MONTEZUMA ST","candidate_group":null},"geometry":{"type":"Point","coordinates":[-98.53489911,29.41970475]}},{"type":"Feature","properties":{"kind":"crash","crash_id":"21528273","year":2026,"deaths":0,"serious_injuries":1,"victim_ages":"","victim_genders":"1 - MALE","victim_helmets":"1 - NOT WORN","contributing_factors":"No Data; No Data; No Data","street_name":"SS0536","intersecting_street":"","candidate_group":null},"geometry":{"type":"Point","coordinates":[-98.48641941,29.39248549]}},{"type":"Feature","properties":{"kind":"crash","crash_id":"21595619","year":2026,"deaths":0,"serious_injuries":1,"victim_ages":"34","victim_genders":"1 - MALE","victim_helmets":"1 - NOT WORN","contributing_factors":"98 - OTHER (EXPLAIN IN NARRATIVE); No Data; No Data","street_name":"CALLAGHAN RD","intersecting_street":"","candidate_group":null},"geometry":{"type":"Point","coordinates":[-98.6026504,29.44912207]}},{"type":"Feature","properties":{"kind":"crash","crash_id":"21598611","year":2026,"deaths":0,"serious_injuries":1,"victim_ages":"43","victim_genders":"1 - MALE","victim_helmets":"4 - WORN, UNK DAMAGE","contributing_factors":"98 - OTHER (EXPLAIN IN NARRATIVE); No Data; No Data","street_name":"S GENERAL MCMULLEN DR","intersecting_street":"","candidate_group":null},"geometry":{"type":"Point","coordinates":[-98.55425818,29.42951188]}},{"type":"Feature","properties":{"kind":"crash","crash_id":"21599599","year":2026,"deaths":0,"serious_injuries":1,"victim_ages":"62","victim_genders":"1 - MALE","victim_helmets":"1 - NOT WORN","contributing_factors":"71 - WRONG WAY - ONE WAY ROAD; No Data; No Data","street_name":"BUENA VISTA ST","intersecting_street":"S CIBOLO ST","candidate_group":null},"geometry":{"type":"Point","coordinates":[-98.52125231,29.42655497]}},{"type":"Feature","properties":{"kind":"crash","crash_id":"21613516","year":2026,"deaths":0,"serious_injuries":1,"victim_ages":"","victim_genders":"2 - FEMALE","victim_helmets":"1 - NOT WORN","contributing_factors":"No Data; No Data; No Data","street_name":"SL0368","intersecting_street":"","candidate_group":0},"geometry":{"type":"Point","coordinates":[-98.4237048,29.49874029]}}]}