{"type":"FeatureCollection","features":[{"type":"Feature","properties":{"kind":"crash","crash_id":"20479259","year":2024,"deaths":0,"serious_injuries":1,"victim_ages":"16","victim_genders":"1 - MALE","victim_helmets":"1 - NOT WORN","contributing_factors":"41 - FAULTY EVASIVE ACTION; 69 - WRONG SIDE - APPROACH OR INTERSECTION; No Data","street_name":"SL0353","intersecting_street":"","candidate_group":5},"geometry":{"type":"Point","coordinates":[-98.51311581,29.39884952]}},{"type":"Feature","properties":{"kind":"crash","crash_id":"21509355","year":2026,"deaths":0,"serious_injuries":1,"victim_ages":"66","victim_genders":"1 - MALE","victim_helmets":"1 - NOT WORN","contributing_factors":"69 - WRONG SIDE - APPROACH OR INTERSECTION; 98 - OTHER (EXPLAIN IN NARRATIVE); No Data","street_name":"SL0353","intersecting_street":"LINARES AVE","candidate_group":5},"geometry":{"type":"Point","coordinates":[-98.52187189,29.38880528]}},{"type":"Feature","properties":{"candidate_group":5,"crashes":2,"deaths":0,"serious_injuries":2,"first_year":2024,"last_year":2026,"roads":"NOGALITOS ST","from_streets":"PRADO ST, PRUITT","to_streets":"CONCEPTION CT, DRAKE AVE","max_match_distance_ft":4.620701913249613,"span_miles":0.6922464664256426,"display_order":7,"kind":"corridor"},"geometry":{"type":"MultiLineString","coordinates":[[[-98.51276599450853,29.39923513795187],[-98.51311730586443,29.398834194325]],[[-98.5213738001885,29.38934746565028],[-98.52192628802945,29.388723073708178]]]}}]}