{"type":"FeatureCollection","features":[{"type":"Feature","properties":{"kind":"crash","crash_id":"20198215","year":2024,"deaths":0,"serious_injuries":1,"victim_ages":"40","victim_genders":"1 - MALE","victim_helmets":"1 - NOT WORN","contributing_factors":"35 - FAILED TO YIELD RIGHT OF WAY - STOP SIGN; No Data; No Data","street_name":"IH0035","intersecting_street":"SEGUIN RD","candidate_group":4},"geometry":{"type":"Point","coordinates":[-98.42342232,29.44947264]}},{"type":"Feature","properties":{"kind":"crash","crash_id":"21298533","year":2026,"deaths":0,"serious_injuries":1,"victim_ages":"21","victim_genders":"1 - MALE","victim_helmets":"1 - NOT WORN","contributing_factors":"20 - DRIVER INATTENTION; No Data; No Data","street_name":"IH0035","intersecting_street":"","candidate_group":4},"geometry":{"type":"Point","coordinates":[-98.42813252,29.44777273]}},{"type":"Feature","properties":{"candidate_group":4,"crashes":2,"deaths":0,"serious_injuries":2,"first_year":2024,"last_year":2026,"roads":"IH 35 N ACCESS RD","from_streets":"TBD","to_streets":"TBD","max_match_distance_ft":33.529866115914984,"span_miles":0.28410277626978564,"display_order":6,"kind":"corridor"},"geometry":{"type":"MultiLineString","coordinates":[[[-98.4280907662558,29.447138802590544],[-98.42638319317602,29.448082378358624],[-98.42536048108298,29.448627344224636],[-98.42462733992642,29.448944592481492],[-98.42333659115515,29.449514515631424]],[[-98.42690692444796,29.448545290808813],[-98.42972774671851,29.447016538137984],[-98.43095216061187,29.446356199694765]]]}}]}