{"type":"FeatureCollection","features":[{"type":"Feature","properties":{"kind":"crash","crash_id":"19980922","year":2024,"deaths":0,"serious_injuries":1,"victim_ages":"63","victim_genders":"1 - MALE","victim_helmets":"1 - NOT WORN","contributing_factors":"98 - OTHER (EXPLAIN IN NARRATIVE); No Data; No Data","street_name":"ENRIQUE M BARRERA PKWY","intersecting_street":"","candidate_group":3},"geometry":{"type":"Point","coordinates":[-98.57229298,29.42693866]}},{"type":"Feature","properties":{"kind":"crash","crash_id":"20375061","year":2024,"deaths":1,"serious_injuries":0,"victim_ages":"58","victim_genders":"1 - MALE","victim_helmets":"1 - NOT WORN","contributing_factors":"No Data; No Data; No Data","street_name":"W OLD US 90","intersecting_street":"","candidate_group":3},"geometry":{"type":"Point","coordinates":[-98.56331164,29.43092802]}},{"type":"Feature","properties":{"kind":"crash","crash_id":"20709191","year":2025,"deaths":1,"serious_injuries":0,"victim_ages":"","victim_genders":"1 - MALE","victim_helmets":"1 - NOT WORN","contributing_factors":"98 - OTHER (EXPLAIN IN NARRATIVE); No Data; No Data","street_name":"W OLD US 90","intersecting_street":"","candidate_group":3},"geometry":{"type":"Point","coordinates":[-98.5658323,29.42989497]}},{"type":"Feature","properties":{"candidate_group":3,"crashes":3,"deaths":2,"serious_injuries":1,"first_year":2024,"last_year":2025,"roads":"HISTORIC OLD HWY 90","from_streets":"MONTEREY ST, S SAN JOAQUIN, W CESAR CHAVEZ BLVD","to_streets":"MONTEREY ST, SW 36TH ST","max_match_distance_ft":1.6669485050726547,"span_miles":0.542098735983591,"display_order":1,"kind":"corridor"},"geometry":{"type":"MultiLineString","coordinates":[[[-98.5657303299362,29.429947612285613],[-98.5660222937553,29.429811737125956]],[[-98.5630292682844,29.431001178322738],[-98.56314509015714,29.430971896498786],[-98.56347459090837,29.43087602797196],[-98.5636248236789,29.430824951977154],[-98.56381515894961,29.430763005835654],[-98.56406926229266,29.430666201193063],[-98.56425963796762,29.430594628748196],[-98.5645216383906,29.430487536544994],[-98.5657303299362,29.429947612285613]],[[-98.56941326748316,29.42823513595849],[-98.5698263715073,29.42805220140532],[-98.57052906692964,29.427734059575705],[-98.57199818503395,29.427068404026794],[-98.57241602358452,29.42687791349288]]]}}]}