{"type":"FeatureCollection","features":[{"type":"Feature","properties":{"kind":"crash","crash_id":"20676091","year":2025,"deaths":0,"serious_injuries":1,"victim_ages":"32","victim_genders":"1 - MALE","victim_helmets":"99 - UNKNOWN IF WORN","contributing_factors":"20 - DRIVER INATTENTION; No Data; No Data","street_name":"FM1976","intersecting_street":"GIBBS SPRAWL RD","candidate_group":8},"geometry":{"type":"Point","coordinates":[-98.34922439,29.49735581]}},{"type":"Feature","properties":{"kind":"crash","crash_id":"21206071","year":2025,"deaths":1,"serious_injuries":0,"victim_ages":"50","victim_genders":"1 - MALE","victim_helmets":"1 - NOT WORN","contributing_factors":"35 - FAILED TO YIELD RIGHT OF WAY - STOP SIGN; No Data; No Data","street_name":"FM1976","intersecting_street":"IH0035","candidate_group":8},"geometry":{"type":"Point","coordinates":[-98.36986914,29.50802073]}},{"type":"Feature","properties":{"candidate_group":8,"crashes":2,"deaths":1,"serious_injuries":1,"first_year":2025,"last_year":2025,"roads":"WALZEM RD","from_streets":"TBD","to_streets":"TBD","max_match_distance_ft":1.4187880261573778,"span_miles":1.2457290877955418,"display_order":3,"kind":"corridor"},"geometry":{"type":"MultiLineString","coordinates":[[[-98.35079336898288,29.49903320806766],[-98.35069644227939,29.498949543281114],[-98.35049637950503,29.498769806444894],[-98.35011230304212,29.49835884419579],[-98.34980723248769,29.498007395649555],[-98.34920323086959,29.497328588853986]],[[-98.37009431795661,29.50829201728971],[-98.36928820238501,29.507344205740633]]]}}]}