{"type":"FeatureCollection","features":[{"type":"Feature","properties":{"kind":"crash","crash_id":"20407728","year":2024,"deaths":0,"serious_injuries":1,"victim_ages":"35","victim_genders":"1 - MALE","victim_helmets":"1 - NOT WORN","contributing_factors":"98 - OTHER (EXPLAIN IN NARRATIVE); No Data; No Data","street_name":"SS0536","intersecting_street":"","candidate_group":6},"geometry":{"type":"Point","coordinates":[-98.47818074,29.32298807]}},{"type":"Feature","properties":{"kind":"crash","crash_id":"20606789","year":2025,"deaths":0,"serious_injuries":1,"victim_ages":"35","victim_genders":"1 - MALE","victim_helmets":"1 - NOT WORN","contributing_factors":"27 - FAILED TO PASS TO RIGHT SAFELY; No Data; No Data","street_name":"US0281","intersecting_street":"","candidate_group":6},"geometry":{"type":"Point","coordinates":[-98.4742475,29.31085991]}},{"type":"Feature","properties":{"candidate_group":6,"crashes":2,"deaths":0,"serious_injuries":2,"first_year":2024,"last_year":2025,"roads":"ROOSEVELT AVE","from_streets":"HERBST, TBD","to_streets":"SE LOOP 410 ACCESS RD, TBD","max_match_distance_ft":9.095131038151836,"span_miles":0.83585735362898,"display_order":8,"kind":"corridor"},"geometry":{"type":"MultiLineString","coordinates":[[[-98.4790396139987,29.32571676800969],[-98.47834834126395,29.323409324465693],[-98.47799758992608,29.32233809003389]],[[-98.4748735360157,29.312807067484172],[-98.47407975413438,29.310331424695576]]]}}]}