{"type":"FeatureCollection","features":[{"type":"Feature","properties":{"kind":"crash","crash_id":"21180050","year":2025,"deaths":0,"serious_injuries":1,"victim_ages":"43","victim_genders":"1 - MALE","victim_helmets":"1 - NOT WORN","contributing_factors":"No Data; No Data; No Data","street_name":"S FLORES ST","intersecting_street":"","candidate_group":7},"geometry":{"type":"Point","coordinates":[-98.4886296,29.35116227]}},{"type":"Feature","properties":{"kind":"crash","crash_id":"21465558","year":2026,"deaths":0,"serious_injuries":1,"victim_ages":"51","victim_genders":"2 - FEMALE","victim_helmets":"1 - NOT WORN","contributing_factors":"16 - DISREGARD STOP SIGN OR LIGHT; No Data; No Data","street_name":"S FLORES ST","intersecting_street":"KENDALIA AVE","candidate_group":7},"geometry":{"type":"Point","coordinates":[-98.49255232,29.36048498]}},{"type":"Feature","properties":{"candidate_group":7,"crashes":2,"deaths":0,"serious_injuries":2,"first_year":2025,"last_year":2026,"roads":"S FLORES ST","from_streets":"E HARDING BLVD, KENDALIA AVE","to_streets":"E BONNER AVE, GENEVIEVE DR","max_match_distance_ft":4.332530497432884,"span_miles":0.6425477157918398,"display_order":9,"kind":"corridor"},"geometry":{"type":"MultiLineString","coordinates":[[[-98.48886539530162,29.35166999691329],[-98.48820663842187,29.350158257903203]],[[-98.49256608649605,29.36048637285546],[-98.49221624527497,29.359651022804073]]]}}]}