{"type":"FeatureCollection","features":[{"type":"Feature","properties":{"kind":"crash","crash_id":"20467405","year":2024,"deaths":0,"serious_injuries":1,"victim_ages":"29","victim_genders":"1 - MALE","victim_helmets":"4 - WORN, UNK DAMAGE","contributing_factors":"No Data; No Data; No Data","street_name":"E HOUSTON ST","intersecting_street":"E HOUSTON ST","candidate_group":1},"geometry":{"type":"Point","coordinates":[-98.48974231,29.42646497]}},{"type":"Feature","properties":{"kind":"crash","crash_id":"20492452","year":2024,"deaths":0,"serious_injuries":1,"victim_ages":"31","victim_genders":"1 - MALE","victim_helmets":"1 - NOT WORN","contributing_factors":"20 - DRIVER INATTENTION; 27 - FAILED TO PASS TO RIGHT SAFELY; No Data","street_name":"SOLEDAD ST","intersecting_street":"","candidate_group":1},"geometry":{"type":"Point","coordinates":[-98.49315231,29.42643497]}},{"type":"Feature","properties":{"candidate_group":1,"crashes":2,"deaths":0,"serious_injuries":2,"first_year":2024,"last_year":2024,"roads":"E HOUSTON ST","from_streets":"N ST MARYS, SOLEDAD ST","to_streets":"BRIDGE, NAVARRO ST","max_match_distance_ft":4.594116121922741,"span_miles":0.20577034722510054,"display_order":5,"kind":"corridor"},"geometry":{"type":"MultiLineString","coordinates":[[[-98.49318333640632,29.426421363946435],[-98.4930466578174,29.426425658259614],[-98.49239621522122,29.42645412852901]],[[-98.49133354285156,29.426462462530676],[-98.48972580263052,29.426472144996254]]]}}]}