{"type":"FeatureCollection","features":[{"type":"Feature","properties":{"kind":"crash","crash_id":"20389091","year":2024,"deaths":1,"serious_injuries":0,"victim_ages":"47","victim_genders":"1 - MALE","victim_helmets":"1 - NOT WORN","contributing_factors":"98 - OTHER (EXPLAIN IN NARRATIVE); No Data; No Data","street_name":"EVERS RD","intersecting_street":"","candidate_group":2},"geometry":{"type":"Point","coordinates":[-98.59686729,29.48804996]}},{"type":"Feature","properties":{"kind":"crash","crash_id":"20712851","year":2025,"deaths":0,"serious_injuries":1,"victim_ages":"46","victim_genders":"1 - MALE","victim_helmets":"99 - UNKNOWN IF WORN","contributing_factors":"98 - OTHER (EXPLAIN IN NARRATIVE); No Data; No Data","street_name":"EVERS RD","intersecting_street":"","candidate_group":2},"geometry":{"type":"Point","coordinates":[-98.59377229,29.48565497]}},{"type":"Feature","properties":{"candidate_group":2,"crashes":2,"deaths":1,"serious_injuries":1,"first_year":2024,"last_year":2025,"roads":"EVERS RD","from_streets":"NW LOOP 410, WURZBACH RD","to_streets":"JOINER DR, NW LOOP 410 ACCESS RD","max_match_distance_ft":3.047875940909388,"span_miles":0.18653550413002834,"display_order":2,"kind":"corridor"},"geometry":{"type":"MultiLineString","coordinates":[[[-98.59339078727875,29.485376619494016],[-98.5939118381678,29.4857625445778]],[[-98.59569497236023,29.48713961362599],[-98.59692425910627,29.488082520147564],[-98.59751111871306,29.488527071009575]]]}}]}