{"type":"FeatureCollection","features":[{"type":"Feature","properties":{"kind":"crash","crash_id":"20340999","year":2024,"deaths":0,"serious_injuries":1,"victim_ages":"39","victim_genders":"1 - MALE","victim_helmets":"99 - UNKNOWN IF WORN","contributing_factors":"98 - OTHER (EXPLAIN IN NARRATIVE); No Data; No Data","street_name":"SL0368","intersecting_street":"","candidate_group":0},"geometry":{"type":"Point","coordinates":[-98.40697059,29.51089606]}},{"type":"Feature","properties":{"kind":"crash","crash_id":"21613516","year":2026,"deaths":0,"serious_injuries":1,"victim_ages":"","victim_genders":"2 - FEMALE","victim_helmets":"1 - NOT WORN","contributing_factors":"No Data; No Data; No Data","street_name":"SL0368","intersecting_street":"","candidate_group":0},"geometry":{"type":"Point","coordinates":[-98.4237048,29.49874029]}},{"type":"Feature","properties":{"candidate_group":0,"crashes":2,"deaths":0,"serious_injuries":2,"first_year":2024,"last_year":2026,"roads":"AUSTIN HWY","from_streets":"TBD, WALZEM RD","to_streets":"NE LOOP 410 ACCESS RD, TBD","max_match_distance_ft":8.576473569993944,"span_miles":1.0085179623351987,"display_order":4,"kind":"corridor"},"geometry":{"type":"MultiLineString","coordinates":[[[-98.42501917815886,29.497919568481535],[-98.4242470144314,29.498404408017475],[-98.42333680637276,29.49897734189034],[-98.42266009003804,29.499397954027888]],[[-98.40771487660555,29.510319672561568],[-98.40559218556487,29.511875809151856],[-98.40507104859235,29.51227914710786],[-98.40476061913257,29.512539034702762]]]}}]}